OBJECT_NAME,OBJECT_ID,EPOCH,MEAN_MOTION,ECCENTRICITY,INCLINATION,RA_OF_ASC_NODE,ARG_OF_PERICENTER,MEAN_ANOMALY,EPHEMERIS_TYPE,CLASSIFICATION_TYPE,NORAD_CAT_ID,ELEMENT_SET_NO,REV_AT_EPOCH,BSTAR,MEAN_MOTION_DOT,MEAN_MOTION_DDOT
DMSP 5D-3 F16 (USA 172),2003-048A,2026-06-27T07:15:13.999968,14.14483754,.00081054,98.9887,202.1974,114.9585,59.7637,0,U,28054,999,17091,.35468272E-4,.23E-6,0
METEOSAT-9 (MSG-2),2005-049B,2026-06-26T19:36:46.275264,1.00277622,.00019886,9.3827,54.0739,356.9985,203.7944,0,U,28912,999,709,0,.126E-5,0
DMSP 5D-3 F17 (USA 191),2006-050A,2026-06-27T06:45:13.619232,14.14994167,.00107633,98.7378,184.6449,33.0008,327.1836,0,U,29522,999,1385,.50025254E-4,.54E-6,0
FENGYUN 3A,2008-026A,2026-06-27T06:25:06.798720,14.19573214,.00098681,98.6885,118.9122,97.7117,262.5180,0,U,32958,999,93683,.51133122E-4,.65E-6,0
GOES 14,2009-033A,2026-06-27T00:27:51.586848,1.00108179,.00022514,1.7153,82.9344,19.2331,316.0256,0,U,35491,999,668,0,-.314E-5,0
DMSP 5D-3 F18 (USA 210),2009-057A,2026-06-27T06:04:57.622080,14.14902289,.00102102,98.9041,159.0008,217.9804,142.0650,0,U,35951,999,86101,.14445784E-3,.234E-5,0
EWS-G2 (GOES 15),2010-008A,2026-06-27T02:32:32.985312,1.00268050,.00053458,1.3045,82.7132,43.3637,250.8305,0,U,36411,999,5973,0,.31E-6,0
COMS 1,2010-032A,2026-06-26T22:58:54.748704,0.99166709,.00119179,4.8297,75.2434,12.9181,206.1281,0,U,36744,999,5118,0,.41E-6,0
FENGYUN 3B,2010-059A,2026-06-27T06:56:29.457312,14.14843579,.00224971,98.9621,224.3466,155.5179,337.5335,0,U,37214,999,80885,.13803021E-3,.222E-5,0
SUOMI NPP,2011-061A,2026-06-27T06:41:51.822528,14.19519354,.00009541,98.7955,119.0862,336.8129,23.3003,0,U,37849,999,75987,.44778074E-4,.5E-6,0
METEOSAT-10 (MSG-3),2012-035B,2026-06-27T00:31:52.324032,1.00268678,.00017566,4.6945,60.9773,9.1573,213.1506,0,U,38552,999,5095,0,.1E-7,0
METOP-B,2012-049A,2026-06-27T06:07:58.621440,14.21441946,.00016063,98.6500,229.5537,349.4789,10.6355,0,U,38771,999,71469,.67720564E-4,.105E-5,0
INSAT-3D,2013-038B,2026-06-27T00:41:38.785632,1.00271756,.00011479,1.9512,82.4280,2.7760,329.8733,0,U,39216,999,4717,0,-.329E-5,0
FENGYUN 3C,2013-052A,2026-06-27T05:17:56.142816,14.15757223,.0014651,98.4983,151.6351,359.4901,0.6256,0,U,39260,999,65998,.5353503E-4,.64E-6,0
METEOR-M 2,2014-037A,2026-06-27T06:45:43.896384,14.21464891,.00062609,98.5111,153.6627,18.9192,341.2217,0,U,40069,999,62075,.19667696E-3,.388E-5,0
HIMAWARI-8,2014-060A,2026-06-27T06:19:31.493280,1.00274117,.00011222,0.0113,317.7700,134.2745,58.8661,0,U,40267,999,4286,0,-.264E-5,0
FENGYUN 2G,2014-090A,2026-06-26T16:26:53.974752,1.00269056,.00035792,5.6634,72.7057,150.4754,37.9966,0,U,40367,999,4209,0,-.296E-5,0
METEOSAT-11 (MSG-4),2015-034A,2026-06-27T03:59:48.695712,1.00266192,.00022434,3.2255,71.0480,347.4242,286.1812,0,U,40732,999,731,0,.7E-6,0
ELEKTRO-L 2,2015-074A,2026-06-25T22:47:48.794784,1.00271163,.00007276,6.7170,70.4166,286.6211,244.4527,0,U,41105,999,3859,0,-.113E-5,0
SENTINEL-3A,2016-011A,2026-06-27T05:53:00.161664,14.26735258,.00014348,98.6246,245.4842,96.8120,263.3224,0,U,41335,999,53949,.5926909E-4,.1E-5,0
INSAT-3DR,2016-054A,2026-06-27T02:35:32.698176,1.00272424,.00100525,0.1309,86.1866,186.7850,115.1093,0,U,41752,999,3591,0,-.65E-6,0
HIMAWARI-9,2016-064A,2026-06-27T06:19:31.565856,1.00270921,.00011779,0.0169,47.0434,66.9775,36.9953,0,U,41836,999,3531,0,-.263E-5,0
GOES 16,2016-071A,2026-06-27T05:09:50.565312,1.00272083,.00005901,0.3660,85.5235,9.4657,153.1049,0,U,41866,999,3520,0,-.8E-6,0
FENGYUN 4A,2016-077A,2026-06-26T13:08:30.580224,1.00264621,.0008229,2.3469,80.1884,152.1316,3.0696,0,U,41882,999,3502,0,-.348E-5,0
CYGFM05,2016-078A,2026-06-27T05:55:12.868608,15.57082196,.00081329,34.9548,193.9564,242.0936,117.8965,0,U,41884,999,53032,.3055307E-3,.22914E-3,0
CYGFM04,2016-078B,2026-06-27T05:59:25.438272,15.62048843,.00072725,34.9306,161.1148,278.5878,81.4023,0,U,41885,999,53057,.34549486E-3,.31373E-3,0
CYGFM02,2016-078C,2026-06-27T05:32:16.925280,15.65132330,.00082085,34.9386,155.4782,280.5423,79.4379,0,U,41886,999,53074,.36545938E-3,.37538E-3,0
CYGFM01,2016-078D,2026-06-26T09:32:53.515104,15.57732603,.0007851,34.9382,200.5628,229.8106,130.1932,0,U,41887,999,53014,.30491E-3,.23434E-3,0
CYGFM08,2016-078E,2026-06-27T05:41:18.928896,15.60510591,.00091506,34.9410,174.3063,264.9184,95.0497,0,U,41888,999,53054,.33841152E-3,.2896E-3,0
CYGFM07,2016-078G,2026-06-27T06:13:42.269664,15.60613623,.00076273,34.9427,162.4894,278.4953,81.4908,0,U,41890,999,53057,.33534508E-3,.28792E-3,0
CYGFM03,2016-078H,2026-06-27T05:32:01.305888,15.60604008,.00073406,34.9382,164.6159,266.7675,93.2210,0,U,41891,999,53054,.33367401E-3,.28635E-3,0
